[Satellite]
VERSION=1.1
NAME=GPS BIIRM-8 (PRN 05)
NICKNAME=GPS BIIRM-8 (PRN 05)
TLE1=1 35752U 09043A   15055.42973966  .00000022  00000-0  00000+0 0  9993
TLE2=2 35752  54.2417 193.7216 0039483  20.5360  17.7019  2.00550608 40509
